EUTELSAT QUANTUM        
1 49056U 21069B   25328.16549925  .00000146  00000+0  00000+0 0  9992
2 49056   0.0397  62.8768 0003003 193.8297 273.9689  1.00272536 15878
EUTELSAT KONNECT VHTS   
1 53765U 22110A   25328.72731124  .00000037  00000+0  00000+0 0  9997
2 53765   0.0605 109.2512 0002601 104.9198 114.3289  1.00268547  4779
EUTELSAT HOTBIRD 13F    
1 54048U 22134A   25327.94460748  .00000108  00000+0  00000+0 0  9991
2 54048   0.0533 288.6152 0002016  78.1838  49.4529  1.00273101 11314
EUTELSAT HOTBIRD 13G    
1 54225U 22146A   25327.87328010  .00000107  00000+0  00000+0 0  9997
2 54225   0.0482 242.0407 0001880 290.5805 217.8788  1.00268691  5402
EUTELSAT 10B            
1 54259U 22157A   25328.72878456  .00000089  00000+0  00000+0 0  9994
2 54259   0.0606 106.1692 0000898   5.6251 224.5479  1.00273175 10974
EUTELSAT 36D            
1 59346U 24059A   25327.94911417  .00000176  00000+0  00000+0 0  9994
2 59346   0.0170 321.6879 0000559  42.7234  76.3222  1.00271491  6085
